PELICAN-6               
1 66703U 25276AP  26068.70709364  .00077979  00000+0  29726-2 0  9998
2 66703  97.4276 144.2072 0003569 157.8575 202.2819 15.26377980 15334
STARLINK-36511          
1 67451U 26008G   26068.39687263  .00028197  00000+0  10298-2 0  9993
2 67451  43.0004 207.2129 0003175 282.3495  77.7001 15.27593687  9529
